{
  "type": "FeatureCollection",
  "features": [
    {
      "type": "Feature",
      "properties": {
        "norad_id": 29790,
        "name": "FENGYUN 1C DEB",
        "group": "fengyun-1c-debris",
        "lat": -33.18806352879297,
        "lon": 162.70097506108658,
        "alt_km": 761.5525047349574,
        "timestamp": "2025-12-20T07:33:51.084382+00:00",
        "meta_object_name": "FENGYUN 1C DEB",
        "meta_object_id": "1999-025CG",
        "meta_epoch": "2025-12-19T18:50:20.869728",
        "meta_mean_motion": 14.32279315,
        "meta_eccentricity": 0.00768181,
        "meta_inclination": 99.1474,
        "meta_ra_of_asc_node": 348.1917,
        "meta_arg_of_pericenter": 156.117,
        "meta_mean_anomaly": 204.3607,
        "meta_ephemeris_type": 0,
        "meta_classification_type": "U",
        "meta_norad_cat_id": 29790,
        "meta_element_set_no": 999,
        "meta_rev_at_epoch": 98626,
        "meta_bstar": 0.00019824138,
        "meta_mean_motion_dot": 5.04e-06,
        "meta_mean_motion_ddot": 0,
        "tle_line1": "1 29790U 99025CG  25353.78496377  .00000504  00000+0  19824-3 0  9996",
        "tle_line2": "2 29790  99.1474 348.1917 0076818 156.1170 204.3607 14.32279315986267"
      },
      "geometry": {
        "type": "Point",
        "coordinates": [
          162.70097506108658,
          -33.18806352879297
        ]
      }
    },
    {
      "type": "Feature",
      "properties": {
        "norad_id": 29791,
        "name": "FENGYUN 1C DEB",
        "group": "fengyun-1c-debris",
        "lat": 47.17218231154688,
        "lon": -174.60289444407235,
        "alt_km": 695.4813226781598,
        "timestamp": "2025-12-20T07:33:51.084392+00:00",
        "meta_object_name": "FENGYUN 1C DEB",
        "meta_object_id": "1999-025CH",
        "meta_epoch": "2025-12-19T22:59:26.632896",
        "meta_mean_motion": 14.58340676,
        "meta_eccentricity": 0.00413576,
        "meta_inclination": 99.0357,
        "meta_ra_of_asc_node": 355.1239,
        "meta_arg_of_pericenter": 40.5536,
        "meta_mean_anomaly": 16.5719,
        "meta_ephemeris_type": 0,
        "meta_classification_type": "U",
        "meta_norad_cat_id": 29791,
        "meta_element_set_no": 999,
        "meta_rev_at_epoch": 98951,
        "meta_bstar": 0.00098203998,
        "meta_mean_motion_dot": 4.545e-05,
        "meta_mean_motion_ddot": 0,
        "tle_line1": "1 29791U 99025CH  25353.95794714  .00004545  00000+0  98204-3 0  9990",
        "tle_line2": "2 29791  99.0357 355.1239 0041357  40.5536  16.5719 14.58340676989519"
      },
      "geometry": {
        "type": "Point",
        "coordinates": [
          -174.60289444407235,
          47.17218231154688
        ]
      }
    },
    {
      "type": "Feature",
      "properties": {
        "norad_id": 29792,
        "name": "FENGYUN 1C DEB",
        "group": "fengyun-1c-debris",
        "lat": 56.161219761879465,
        "lon": 31.449320966313646,
        "alt_km": 810.9635727938703,
        "timestamp": "2025-12-20T07:33:51.084402+00:00",
        "meta_object_name": "FENGYUN 1C DEB",
        "meta_object_id": "1999-025CJ",
        "meta_epoch": "2025-12-19T14:19:44.459040",
        "meta_mean_motion": 14.15186267,
        "meta_eccentricity": 0.0047667,
        "meta_inclination": 98.7569,
        "meta_ra_of_asc_node": 44.0361,
        "meta_arg_of_pericenter": 16.4078,
        "meta_mean_anomaly": 343.8626,
        "meta_ephemeris_type": 0,
        "meta_classification_type": "U",
        "meta_norad_cat_id": 29792,
        "meta_element_set_no": 999,
        "meta_rev_at_epoch": 97036,
        "meta_bstar": 0.00099556,
        "meta_mean_motion_dot": 1.912e-05,
        "meta_mean_motion_ddot": 0,
        "tle_line1": "1 29792U 99025CJ  25353.59704235  .00001912  00000+0  99556-3 0  9996",
        "tle_line2": "2 29792  98.7569  44.0361 0047667  16.4078 343.8626 14.15186267970367"
      },
      "geometry": {
        "type": "Point",
        "coordinates": [
          31.449320966313646,
          56.161219761879465
        ]
      }
    },
    {
      "type": "Feature",
      "properties": {
        "norad_id": 29793,
        "name": "FENGYUN 1C DEB",
        "group": "fengyun-1c-debris",
        "lat": 13.49946917030378,
        "lon": 170.43255933406556,
        "alt_km": 833.1609097692744,
        "timestamp": "2025-12-20T07:33:51.084413+00:00",
        "meta_object_name": "FENGYUN 1C DEB",
        "meta_object_id": "1999-025CK",
        "meta_epoch": "2025-12-19T11:04:14.428704",
        "meta_mean_motion": 14.01096958,
        "meta_eccentricity": 0.0143591,
        "meta_inclination": 98.354,
        "meta_ra_of_asc_node": 171.6724,
        "meta_arg_of_pericenter": 319.1157,
        "meta_mean_anomaly": 68.666,
        "meta_ephemeris_type": 0,
        "meta_classification_type": "U",
        "meta_norad_cat_id": 29793,
        "meta_element_set_no": 999,
        "meta_rev_at_epoch": 96243,
        "meta_bstar": 0.00072936,
        "meta_mean_motion_dot": 1.157e-05,
        "meta_mean_motion_ddot": 0,
        "tle_line1": "1 29793U 99025CK  25353.46127811  .00001157  00000+0  72936-3 0  9996",
        "tle_line2": "2 29793  98.3540 171.6724 0143591 319.1157  68.6660 14.01096958962438"
      },
      "geometry": {
        "type": "Point",
        "coordinates": [
          170.43255933406556,
          13.49946917030378
        ]
      }
    },
    {
      "type": "Feature",
      "properties": {
        "norad_id": 29794,
        "name": "FENGYUN 1C DEB",
        "group": "fengyun-1c-debris",
        "lat": 2.139687984324702,
        "lon": -27.415230561987666,
        "alt_km": 971.1701963820915,
        "timestamp": "2025-12-20T07:33:51.084423+00:00",
        "meta_object_name": "FENGYUN 1C DEB",
        "meta_object_id": "1999-025CL",
        "meta_epoch": "2025-12-18T10:42:02.085408",
        "meta_mean_motion": 14.09008563,
        "meta_eccentricity": 0.01568567,
        "meta_inclination": 98.2,
        "meta_ra_of_asc_node": 150.5738,
        "meta_arg_of_pericenter": 24.1383,
        "meta_mean_anomaly": 36.3057,
        "meta_ephemeris_type": 0,
        "meta_classification_type": "U",
        "meta_norad_cat_id": 29794,
        "meta_element_set_no": 999,
        "meta_rev_at_epoch": 96928,
        "meta_bstar": 0.00046396802,
        "meta_mean_motion_dot": 8.62e-06,
        "meta_mean_motion_ddot": 0,
        "tle_line1": "1 29794U 99025CL  25352.44585747  .00000862  00000+0  46397-3 0  9994",
        "tle_line2": "2 29794  98.2000 150.5738 0156856  24.1383  36.3057 14.09008563969287"
      },
      "geometry": {
        "type": "Point",
        "coordinates": [
          -27.415230561987666,
          2.139687984324702
        ]
      }
    },
    {
      "type": "Feature",
      "properties": {
        "norad_id": 29795,
        "name": "FENGYUN 1C DEB",
        "group": "fengyun-1c-debris",
        "lat": -10.851655125743369,
        "lon": -58.34152314204123,
        "alt_km": 886.8893664986317,
        "timestamp": "2025-12-20T07:33:51.084433+00:00",
        "meta_object_name": "FENGYUN 1C DEB",
        "meta_object_id": "1999-025CM",
        "meta_epoch": "2025-12-18T20:47:27.691008",
        "meta_mean_motion": 13.92912152,
        "meta_eccentricity": 0.01110489,
        "meta_inclination": 98.8709,
        "meta_ra_of_asc_node": 121.9855,
        "meta_arg_of_pericenter": 259.2532,
        "meta_mean_anomaly": 231.3348,
        "meta_ephemeris_type": 0,
        "meta_classification_type": "U",
        "meta_norad_cat_id": 29795,
        "meta_element_set_no": 999,
        "meta_rev_at_epoch": 96150,
        "meta_bstar": 0.00012541377,
        "meta_mean_motion_dot": 1.28e-06,
        "meta_mean_motion_ddot": 0,
        "tle_line1": "1 29795U 99025CM  25352.86629272  .00000128  00000+0  12541-3 0  9992",
        "tle_line2": "2 29795  98.8709 121.9855 0111048 259.2532 231.3348 13.92912152961509"
      },
      "geometry": {
        "type": "Point",
        "coordinates": [
          -58.34152314204123,
          -10.851655125743369
        ]
      }
    },
    {
      "type": "Feature",
      "properties": {
        "norad_id": 29796,
        "name": "FENGYUN 1C DEB",
        "group": "fengyun-1c-debris",
        "lat": -14.406738194220264,
        "lon": 48.402076916715416,
        "alt_km": 861.8109207751395,
        "timestamp": "2025-12-20T07:33:51.084443+00:00",
        "meta_object_name": "FENGYUN 1C DEB",
        "meta_object_id": "1999-025CN",
        "meta_epoch": "2025-12-19T22:16:47.383680",
        "meta_mean_motion": 14.1235226,
        "meta_eccentricity": 0.00522079,
        "meta_inclination": 98.8641,
        "meta_ra_of_asc_node": 45.7221,
        "meta_arg_of_pericenter": 247.3276,
        "meta_mean_anomaly": 291.7895,
        "meta_ephemeris_type": 0,
        "meta_classification_type": "U",
        "meta_norad_cat_id": 29796,
        "meta_element_set_no": 999,
        "meta_rev_at_epoch": 97162,
        "meta_bstar": 0.00048566438,
        "meta_mean_motion_dot": 8.62e-06,
        "meta_mean_motion_ddot": 0,
        "tle_line1": "1 29796U 99025CN  25353.92832620  .00000862  00000+0  48566-3 0  9995",
        "tle_line2": "2 29796  98.8641  45.7221 0052207 247.3276 291.7895 14.12352260971621"
      },
      "geometry": {
        "type": "Point",
        "coordinates": [
          48.402076916715416,
          -14.406738194220264
        ]
      }
    }
  ]
}